OBJECT_NAME,OBJECT_ID,EPOCH,MEAN_MOTION,ECCENTRICITY,INCLINATION,RA_OF_ASC_NODE,ARG_OF_PERICENTER,MEAN_ANOMALY,EPHEMERIS_TYPE,CLASSIFICATION_TYPE,NORAD_CAT_ID,ELEMENT_SET_NO,REV_AT_EPOCH,BSTAR,MEAN_MOTION_DOT,MEAN_MOTION_DDOT
INTELSAT 902 (IS-902),2001-039A,2026-06-27T03:42:42.833952,1.00271329,.00042,6.1414,71.6622,24.6956,184.4844,0,U,26900,999,9079,0,-.278E-5,0
INTELSAT 904 (IS-904),2002-007A,2026-06-27T04:06:10.517184,1.00273021,.0006526,6.9444,69.0666,11.3406,224.9345,0,U,27380,999,5186,0,-.221E-5,0
DIRECTV 5 (TEMPO 1),2002-023A,2026-06-27T03:25:41.997216,1.00271616,.0003549,4.9027,75.1906,24.8175,116.5711,0,U,27426,999,8822,0,-.5E-6,0
INTELSAT 905 (IS-905),2002-027A,2026-06-26T18:44:41.347104,1.00272022,.00041387,6.7772,69.6863,26.4071,322.7696,0,U,27438,999,5145,0,.98E-6,0
GALAXY 3C (G-3C),2002-030A,2026-06-27T04:41:38.568192,1.00272390,.0001986,3.7581,77.8503,25.2577,147.7750,0,U,27445,999,4659,0,-.145E-5,0
INTELSAT 906 (IS-906),2002-041A,2026-06-26T19:42:02.336832,1.00272159,.00042054,5.8263,72.8033,7.3513,194.4364,0,U,27513,999,8712,0,.19E-6,0
GALAXY 13 (HORIZONS-1),2003-044A,2026-06-27T03:14:21.584256,1.00269829,.0001721,1.4443,83.7385,4.2564,85.8326,0,U,27954,999,4667,0,.143E-5,0
INTELSAT 10-02,2004-022A,2026-06-27T03:56:48.981984,1.00270753,.0000178,0.0268,287.5242,181.8453,224.1091,0,U,28358,999,8065,0,0,0
DIRECTV 8,2005-019A,2026-06-27T01:40:28.590240,1.00271711,.00033,0.0220,69.5577,30.1755,81.5207,0,U,28659,999,7717,0,.13E-6,0
GALAXY 28 (G-28),2005-022A,2026-06-27T04:47:35.210112,1.00270977,.0002275,3.3235,78.8111,17.0371,224.2616,0,U,28702,999,5207,0,-.192E-5,0
GALAXY 16 (G-16),2006-023A,2026-06-27T03:28:49.198368,1.00272113,.0002888,0.0433,124.0845,320.8515,143.5175,0,U,29236,999,7307,0,-.115E-5,0
DIRECTV 9S,2006-043A,2026-06-27T03:28:19.245216,1.00271903,.0005423,2.4461,80.7924,18.9230,126.4222,0,U,29494,999,5148,0,-.104E-5,0
GALAXY 17 (G-17),2007-016B,2026-06-27T04:33:38.623968,1.00271226,.0004599,2.9969,79.7814,20.0086,158.9135,0,U,31307,999,6990,0,-.197E-5,0
INTELSAT 11 (IS-11),2007-044B,2026-06-27T04:20:24.220896,0.99047741,.000308,3.5910,78.5553,84.3941,259.3204,0,U,32253,999,6854,0,.38E-6,0
HORIZONS-2,2007-063B,2026-06-27T04:25:38.698752,1.00271244,.0004169,2.6274,80.5108,6.7343,180.6622,0,U,32388,999,6791,0,-.244E-5,0
DIRECTV 11,2008-013A,2026-06-27T03:28:49.198368,1.00270003,.0000361,0.0102,268.2456,210.7766,109.2535,0,U,32729,999,4569,0,-.114E-5,0
GALAXY 18 (G-18),2008-024A,2026-06-27T02:29:38.580864,1.00269980,.0003257,0.0262,19.9929,79.9945,89.6470,0,U,32951,999,4595,0,0,0
GALAXY 19 (G-19),2008-045A,2026-06-27T03:29:19.148928,1.00271298,.0002928,0.0424,260.6553,203.9859,125.9473,0,U,33376,999,6500,0,-.127E-5,0
FM-5,2009-034A,2026-06-27T04:33:38.623968,1.00271055,.0000829,0.0266,288.2610,58.7185,270.5709,0,U,35493,999,4674,0,-.188E-5,0
INTELSAT 14 (IS-14),2009-064A,2026-06-27T04:50:38.683104,1.00272388,.0002689,0.0164,23.6686,71.9109,207.4003,0,U,36097,999,6070,0,-.262E-5,0
INTELSAT 15 (IS-15),2009-067A,2026-06-27T02:38:47.385888,1.00271495,.0002544,0.0141,46.2513,54.0730,299.7482,0,U,36106,999,4132,0,-.173E-5,0
DIRECTV 12,2009-075A,2026-06-27T03:27:49.292064,1.00270563,.000044,0.0157,165.5702,328.8472,90.0707,0,U,36131,999,4665,0,-.92E-6,0
INTELSAT 16 (IS-16),2010-006A,2026-06-27T04:33:38.623968,1.00272223,.0002425,0.0135,38.6810,70.9486,157.8845,0,U,36397,999,5975,0,-.233E-5,0
XM-5,2010-053A,2026-06-27T03:43:38.676864,1.00271329,.0002631,0.0659,271.3658,282.4194,22.2012,0,U,37185,999,5758,0,-.11E-6,0
INTELSAT 17 (IS-17),2010-065B,2026-06-27T02:33:17.913312,1.00270844,.0002352,0.0115,76.4921,19.9904,283.0606,0,U,37238,999,5334,0,.1E-6,0
INTELSAT 28 (IS-28),2011-016A,2026-06-27T04:41:14.898912,1.00271509,.000403,1.8317,82.5099,12.5028,218.8759,0,U,37392,999,5338,0,-.215E-5,0
INTELSAT 18 (IS-18),2011-056A,2026-06-27T03:05:44.908800,1.00273244,.0002097,0.0129,308.3484,152.2127,41.1149,0,U,37834,999,5391,0,.65E-6,0
INTELSAT 22 (IS-22),2012-011A,2026-06-27T04:17:39.486336,1.00270723,.0001782,0.0387,56.9895,72.9850,281.8416,0,U,38098,999,728,0,0,0
INTELSAT 19 (IS-19),2012-030A,2026-06-27T02:52:38.604000,1.00271335,.0003358,0.0167,20.7738,81.1360,22.4884,0,U,38356,999,5055,0,-.45E-6,0
INTELSAT 20 (IS-20),2012-043A,2026-06-27T04:16:39.580032,1.00262160,.0001069,0.0061,46.8790,137.8511,223.2248,0,U,38740,999,5084,0,-.11E-6,0
INTELSAT 21 (IS-21),2012-045A,2026-06-27T04:17:38.757120,1.00271611,.0001842,0.0262,70.5504,38.0811,173.0736,0,U,38749,999,5062,0,-.273E-5,0
